ONEWEB-0045             
1 45151U 20008W   24335.40681309 -.00000412  00000+0 -11987-2 0  9990
2 45151  87.8895 133.3700 0001527  87.5760 272.5543 13.11418189237296
ONEWEB-0047             
1 45152U 20008X   24335.24900087  .00000678  00000+0  19069-2 0  9991
2 45152  87.8886 148.5786 0001493  90.6077 269.5221 13.10372743235131
ONEWEB-0048             
1 45153U 20008Y   24334.78588113  .00000725  00000+0  20400-2 0  9996
2 45153  87.8888 148.6895 0001569  91.7436 268.3871 13.10372210233899
ONEWEB-0049             
1 45154U 20008Z   24334.94025304  .00000690  00000+0  19405-2 0  9997
2 45154  87.8890 148.6446 0001818 105.4953 254.6375 13.10372648234139
ONEWEB-0051             
1 45155U 20008AA  24334.87102890 -.00000299  00000+0 -87846-3 0  9998
2 45155  87.8878 133.5191 0001279  94.2160 265.9114 13.11416299237908
ONEWEB-0052             
1 45156U 20008AB  24335.24236707  .00000651  00000+0  18282-2 0  9993
2 45156  87.8867 148.5436 0001935 103.9930 256.1413 13.10373212234847
ONEWEB-0053             
1 45157U 20008AC  24334.76594541 -.00000148  00000+0 -46020-3 0  9998
2 45157  87.8892 148.6944 0001756  80.2723 279.8602 13.10376819233992
ONEWEB-0054             
1 45158U 20008AD  24335.18262167  .00000464  00000+0  12915-2 0  9996
2 45158  87.8890 148.5907 0001391  93.5610 266.5676 13.10374152234922
